[{"OBJECT_NAME":"STARLINK-36163","OBJECT_ID":"2025-293F","EPOCH":"2026-03-09T19:16:57.465696","MEAN_MOTION":14.98323714,"ECCENTRICITY":0.00036157,"INCLINATION":70.0013,"RA_OF_ASC_NODE":94.2216,"ARG_OF_PERICENTER":273.6774,"MEAN_ANOMALY":86.3972,"EPHEMERIS_TYPE":0,"CLASSIFICATION_TYPE":"U","NORAD_CAT_ID":67008,"ELEMENT_SET_NO":999,"REV_AT_EPOCH":1490,"BSTAR":0.00020625941,"MEAN_MOTION_DOT":2.369e-5,"MEAN_MOTION_DDOT":0},{"OBJECT_NAME":"FENGYUN 1C DEB","OBJECT_ID":"1999-025CEL","EPOCH":"2026-03-09T13:55:44.240160","MEAN_MOTION":14.69547099,"ECCENTRICITY":0.0148084,"INCLINATION":97.9062,"RA_OF_ASC_NODE":104.3983,"ARG_OF_PERICENTER":98.2334,"MEAN_ANOMALY":51.9192,"EPHEMERIS_TYPE":0,"CLASSIFICATION_TYPE":"U","NORAD_CAT_ID":31737,"ELEMENT_SET_NO":999,"REV_AT_EPOCH":99474,"BSTAR":0.00068437,"MEAN_MOTION_DOT":4.757e-5,"MEAN_MOTION_DDOT":0}]
